{"type": "FeatureCollection", "features": [ {"type": "Feature", "properties": {"norad_id": 17070, "name": "POLAR BEAR", "group": "nnss", "lat": 62.191378059105574, "lon": -176.07733954737145, "alt_km": 945.5203608561405, "timestamp": "2025-12-27T03:58:44.421036+00:00", "meta": {"OBJECT_NAME": "POLAR BEAR", "OBJECT_ID": "1986-088A", "EPOCH": "2025-12-26T12:02:59.489088", "MEAN_MOTION": 13.7525362, "ECCENTRICITY": 0.0041266, "INCLINATION": 89.6169, "RA_OF_ASC_NODE": 183.2226, "ARG_OF_PERICENTER": 79.6962, "MEAN_ANOMALY": 298.6828, "EPHEMERIS_TYPE": 0, "CLASSIFICATION_TYPE": "U", "NORAD_CAT_ID": 17070, "ELEMENT_SET_NO": 999, "REV_AT_EPOCH": 96168, "BSTAR": 0.00010681, "MEAN_MOTION_DOT": 1.15e-06, "MEAN_MOTION_DDOT": 0}, "tle": {"line1": "1 17070U 86088A   25360.50207742  .00000115  00000+0  10681-3 0  9993", "line2": "2 17070  89.6169 183.2226 0041266  79.6962 298.6828 13.75253620961685"}}, "geometry": {"type": "Point", "coordinates": [-176.07733954737145, 62.191378059105574]}}, {"type": "Feature", "properties": {"norad_id": 18361, "name": "OSCAR 27", "group": "nnss", "lat": -6.324771569774009, "lon": -100.22989907749535, "alt_km": 1017.205137375613, "timestamp": "2025-12-27T03:58:44.421045+00:00", "meta": {"OBJECT_NAME": "OSCAR 27", "OBJECT_ID": "1987-080A", "EPOCH": "2025-12-26T10:59:09.175776", "MEAN_MOTION": 13.44909552, "ECCENTRICITY": 0.0104074, "INCLINATION": 90.3736, "RA_OF_ASC_NODE": 79.7851, "ARG_OF_PERICENTER": 184.3556, "MEAN_ANOMALY": 175.6696, "EPHEMERIS_TYPE": 0, "CLASSIFICATION_TYPE": "U", "NORAD_CAT_ID": 18361, "ELEMENT_SET_NO": 999, "REV_AT_EPOCH": 87741, "BSTAR": 0.00017189, "MEAN_MOTION_DOT": 1.13e-06, "MEAN_MOTION_DDOT": 0}, "tle": {"line1": "1 18361U 87080A   25360.45774509  .00000113  00000+0  17189-3 0  9992", "line2": "2 18361  90.3736  79.7851 0104074 184.3556 175.6696 13.44909552877413"}}, "geometry": {"type": "Point", "coordinates": [-100.22989907749535, -6.324771569774009]}}, {"type": "Feature", "properties": {"norad_id": 18362, "name": "OSCAR 29", "group": "nnss", "lat": 5.963040434355135, "lon": -99.68909195464347, "alt_km": 1027.8665322057295, "timestamp": "2025-12-27T03:58:44.421055+00:00", "meta": {"OBJECT_NAME": "OSCAR 29", "OBJECT_ID": "1987-080B", "EPOCH": "2025-12-26T11:05:26.932128", "MEAN_MOTION": 13.44450985, "ECCENTRICITY": 0.0104875, "INCLINATION": 90.3748, "RA_OF_ASC_NODE": 80.2454, "ARG_OF_PERICENTER": 207.474, "MEAN_ANOMALY": 163.2863, "EPHEMERIS_TYPE": 0, "CLASSIFICATION_TYPE": "U", "NORAD_CAT_ID": 18362, "ELEMENT_SET_NO": 999, "REV_AT_EPOCH": 87694, "BSTAR": 0.00015143, "MEAN_MOTION_DOT": 9.9e-07, "MEAN_MOTION_DDOT": 0}, "tle": {"line1": "1 18362U 87080B   25360.46211727  .00000099  00000+0  15143-3 0  9993", "line2": "2 18362  90.3748  80.2454 0104875 207.4740 163.2863 13.44450985876941"}}, "geometry": {"type": "Point", "coordinates": [-99.68909195464347, 5.963040434355135]}}, {"type": "Feature", "properties": {"norad_id": 19070, "name": "OSCAR 23", "group": "nnss", "lat": 13.135156413177844, "lon": -163.08603906843376, "alt_km": 1027.4989125672755, "timestamp": "2025-12-27T03:58:44.421065+00:00", "meta": {"OBJECT_NAME": "OSCAR 23", "OBJECT_ID": "1988-033A", "EPOCH": "2025-12-26T15:06:18.736128", "MEAN_MOTION": 13.27789302, "ECCENTRICITY": 0.0190593, "INCLINATION": 90.3203, "RA_OF_ASC_NODE": 16.8225, "ARG_OF_PERICENTER": 141.4067, "MEAN_ANOMALY": 341.813, "EPHEMERIS_TYPE": 0, "CLASSIFICATION_TYPE": "U", "NORAD_CAT_ID": 19070, "ELEMENT_SET_NO": 999, "REV_AT_EPOCH": 82437, "BSTAR": 0.00012944, "MEAN_MOTION_DOT": 7.4e-07, "MEAN_MOTION_DDOT": 0}, "tle": {"line1": "1 19070U 88033A   25360.62938352  .00000074  00000+0  12944-3 0  9996", "line2": "2 19070  90.3203  16.8225 0190593 141.4067 341.8130 13.27789302824376"}}, "geometry": {"type": "Point", "coordinates": [-163.08603906843376, 13.135156413177844]}}, {"type": "Feature", "properties": {"norad_id": 19071, "name": "OSCAR 32", "group": "nnss", "lat": -74.48647980076538, "lon": 18.128800941654475, "alt_km": 1294.4277154685087, "timestamp": "2025-12-27T03:58:44.421075+00:00", "meta": {"OBJECT_NAME": "OSCAR 32", "OBJECT_ID": "1988-033B", "EPOCH": "2025-12-26T10:53:58.878816", "MEAN_MOTION": 13.27955937, "ECCENTRICITY": 0.0189311, "INCLINATION": 90.3209, "RA_OF_ASC_NODE": 16.9498, "ARG_OF_PERICENTER": 128.8267, "MEAN_ANOMALY": 355.8113, "EPHEMERIS_TYPE": 0, "CLASSIFICATION_TYPE": "U", "NORAD_CAT_ID": 19071, "ELEMENT_SET_NO": 999, "REV_AT_EPOCH": 82447, "BSTAR": 0.00013956, "MEAN_MOTION_DOT": 7.9e-07, "MEAN_MOTION_DDOT": 0}, "tle": {"line1": "1 19071U 88033B   25360.45415369  .00000079  00000+0  13956-3 0  9995", "line2": "2 19071  90.3209  16.9498 0189311 128.8267 355.8113 13.27955937824479"}}, "geometry": {"type": "Point", "coordinates": [18.128800941654475, -74.48647980076538]}}, {"type": "Feature", "properties": {"norad_id": 19223, "name": "NOVA 2", "group": "nnss", "lat": -41.510081921399184, "lon": -101.73378112883535, "alt_km": 1189.5845811441277, "timestamp": "2025-12-27T03:58:44.421084+00:00", "meta": {"OBJECT_NAME": "NOVA 2", "OBJECT_ID": "1988-052A", "EPOCH": "2025-12-26T16:48:25.235712", "MEAN_MOTION": 13.22937608, "ECCENTRICITY": 0.0029415, "INCLINATION": 89.9863, "RA_OF_ASC_NODE": 78.2547, "ARG_OF_PERICENTER": 338.0829, "MEAN_ANOMALY": 187.9469, "EPHEMERIS_TYPE": 0, "CLASSIFICATION_TYPE": "U", "NORAD_CAT_ID": 19223, "ELEMENT_SET_NO": 999, "REV_AT_EPOCH": 81132, "BSTAR": 0.00012528, "MEAN_MOTION_DOT": 6.1e-07, "MEAN_MOTION_DDOT": 0}, "tle": {"line1": "1 19223U 88052A   25360.70029208  .00000061  00000+0  12528-3 0  9991", "line2": "2 19223  89.9863  78.2547 0029415 338.0829 187.9469 13.22937608811329"}}, "geometry": {"type": "Point", "coordinates": [-101.73378112883535, -41.510081921399184]}}, {"type": "Feature", "properties": {"norad_id": 19419, "name": "OSCAR 25", "group": "nnss", "lat": -59.680479606691584, "lon": -159.76684409405334, "alt_km": 1048.412334001633, "timestamp": "2025-12-27T03:58:44.421094+00:00", "meta": {"OBJECT_NAME": "OSCAR 25", "OBJECT_ID": "1988-074A", "EPOCH": "2025-12-26T13:18:28.068192", "MEAN_MOTION": 13.42625822, "ECCENTRICITY": 0.0095317, "INCLINATION": 90.0336, "RA_OF_ASC_NODE": 20.2886, "ARG_OF_PERICENTER": 205.9306, "MEAN_ANOMALY": 320.1104, "EPHEMERIS_TYPE": 0, "CLASSIFICATION_TYPE": "U", "NORAD_CAT_ID": 19419, "ELEMENT_SET_NO": 999, "REV_AT_EPOCH": 82825, "BSTAR": 0.00014338, "MEAN_MOTION_DOT": 9.2e-07, "MEAN_MOTION_DDOT": 0}, "tle": {"line1": "1 19419U 88074A   25360.55449153  .00000092  00000+0  14338-3 0  9995", "line2": "2 19419  90.0336  20.2886 0095317 205.9306 320.1104 13.42625822828254"}}, "geometry": {"type": "Point", "coordinates": [-159.76684409405334, -59.680479606691584]}}, {"type": "Feature", "properties": {"norad_id": 19420, "name": "OSCAR 31", "group": "nnss", "lat": 60.25538942975538, "lon": -159.29511727502432, "alt_km": 1079.4448534359672, "timestamp": "2025-12-27T03:58:44.421103+00:00", "meta": {"OBJECT_NAME": "OSCAR 31", "OBJECT_ID": "1988-074B", "EPOCH": "2025-12-26T19:18:00.636192", "MEAN_MOTION": 13.42586836, "ECCENTRICITY": 0.009374, "INCLINATION": 90.0353, "RA_OF_ASC_NODE": 20.6418, "ARG_OF_PERICENTER": 199.3606, "MEAN_ANOMALY": 334.6034, "EPHEMERIS_TYPE": 0, "CLASSIFICATION_TYPE": "U", "NORAD_CAT_ID": 19420, "ELEMENT_SET_NO": 999, "REV_AT_EPOCH": 82839, "BSTAR": 0.00011173, "MEAN_MOTION_DOT": 7.4e-07, "MEAN_MOTION_DDOT": 0}, "tle": {"line1": "1 19420U 88074B   25360.80417403  .00000074  00000+0  11173-3 0  9992", "line2": "2 19420  90.0353  20.6418 0093740 199.3606 334.6034 13.42586836828395"}}, "geometry": {"type": "Point", "coordinates": [-159.29511727502432, 60.25538942975538]}}]}